LEMUR-1                 
1 40044U 14033AL  23143.73963951  .00002628  00000+0  37591-3 0  9994
2 40044  97.6674 319.3097 0058070 135.1062 225.4867 14.76280825479651
LEMUR-2-ANUBHAVTHAKUR   
1 41873U 16062E   23143.88926602  .00016358  00000+0  44315-3 0  9994
2 41873  51.6756 202.4703 0006629  38.1634 321.9818 15.37775630361502
LEMUR-2-JOBANPUTRA      
1 41991U 17008AV  23143.92222641  .00199447  00000+0  15507-2 0  9994
2 41991  97.1891 207.8114 0003064 161.8976 198.2397 15.71156285348662
LEMUR-2-SATCHMO         
1 41993U 17008AX  23143.92798009  .00058544  00000+0  91301-3 0  9991
2 41993  97.2009 206.5196 0005533 109.8466 250.3385 15.53645295348572
LEMUR-2-RDEATON         
1 41995U 17008AZ  23144.10820978  .00043426  00000+0  76950-3 0  9991
2 41995  97.2127 206.6919 0006357 112.3714 247.8212 15.50124584349255
LEMUR-2-TACHIKOMA       
1 41996U 17008BA  23144.42267975  .00710656  22200-3  16748-2 0  9993
2 41996  97.2039 216.3246 0005741 226.7268 133.3531 15.96841437349053
LEMUR-2-MIA-GRACE       
1 41998U 17008BC  23143.67251902  .00048137  00000+0  84874-3 0  9998
2 41998  97.2111 205.7321 0006118 111.2710 248.9196 15.50245153348402
LEMUR-2-SHAINAJOHL      
1 42771U 17036G   23143.89491538  .00079452  00000+0  10627-2 0  9992
2 42771  97.1488 183.6200 0009343 157.6301 202.5365 15.57717191329340
LEMUR-2-XUENITERENCE    
1 42772U 17036H   23144.06332537  .00385152  00000+0  19448-2 0  9993
2 42772  97.1062 185.6745 0007170 193.8252 166.2821 15.80560390329579
LEMUR-2-LUCYBRYCE       
1 42773U 17036J   23144.09678956  .00084083  00000+0  14072-2 0  9992
2 42773  97.1530 182.6950 0008840 163.1282 197.0266 15.51546831329244
LEMUR-2-KUNGFOO         
1 42774U 17036K   23144.04356815  .00097282  00000+0  12423-2 0  9998
2 42774  97.1447 184.4036 0008492 159.5232 200.6367 15.58898681329405
LEMUR-2-LYNSEY-SYMO     
1 42779U 17036Q   23144.07377149  .00298310  00000+0  17257-2 0  9994
2 42779  97.1344 191.4787 0008147 183.5612 176.5599 15.77741613329820
LEMUR-2-LISASAURUS      
1 42780U 17036R   23143.84057012  .00140154  00000+0  14624-2 0  9991
2 42780  97.1409 185.9124 0007173 167.9635 192.1797 15.64029944329451
LEMUR-2-SAM-AMELIA      
1 42781U 17036S   23143.83672768  .00032799  00000+0  78209-3 0  9997
2 42781  97.1529 183.4642 0008905 167.2393 192.9082 15.41459140329243
LEMUR-2-MCPEAKE         
1 42782U 17036T   23143.84424545  .00082278  00000+0  11063-2 0  9998
2 42782  97.1490 187.1382 0007953 161.0478 199.1076 15.57579618329535
LEMUR-2-GREENBERG       
1 42837U 17042N   23143.83660147  .00005583  00000+0  48859-3 0  9993
2 42837  97.3930 347.6622 0010007 296.5944  63.4253 14.97054249319128
LEMUR-2-ANDIS           
1 42838U 17042P   23143.82875846  .00005205  00000+0  45608-3 0  9997
2 42838  97.3913 347.5459 0010375 295.3968  64.6180 14.97034868319125
LEMUR-2-MONSON          
1 42839U 17042Q   23144.03926099  .00005240  00000+0  46287-3 0  9992
2 42839  97.3934 347.4471 0009741 296.3906  63.6316 14.96718335319127
LEMUR-2-FURIAUS         
1 42840U 17042R   23144.34391939  .00004311  00000+0  38232-3 0  9996
2 42840  97.3964 348.1034 0010476 297.9285  62.0876 14.96655341319164
LEMUR-2-PETERG          
1 42841U 17042S   23143.85091771  .00006375  00000+0  56176-3 0  9992
2 42841  97.3980 348.9331 0009568 294.6108  65.4117 14.96737960319162
LEMUR-2-DEMBITZ         
1 42842U 17042T   23143.82490460  .00004837  00000+0  42399-3 0  9991
2 42842  97.3950 348.8312 0010218 292.9198  67.0945 14.97052073319176
LEMUR-2-ZACHARY         
1 42845U 17042W   23143.80207301  .00006220  00000+0  52047-3 0  9991
2 42845  97.3853 348.0008 0009675 295.8248  64.1978 14.98760858319248
LEMUR-2-MARSHALL        
1 43165U 18010C   23144.14783811  .00101501  00000+0  12958-2 0  9990
2 43165  82.8977  97.3643 0014819 151.3231 208.8844 15.58784087296861
LEMUR-2-TALLHAMN-ATC    
1 43167U 18010E   23143.92614869  .00056219  00000+0  11840-2 0  9997
2 43167  82.9046 106.9988 0014523 181.5751 178.5455 15.44927831296248
LEMUR-2-JIN-LUEN        
1 43182U 18014C   23143.68730953  .00007125  00000+0  52529-3 0  9996
2 43182  97.6177  46.3899 0013402 242.0992 117.8877 15.03537737289924
LEMUR-2-URAMCHANSOL     
1 43183U 18014D   23143.69576469  .00008147  00000+0  58382-3 0  9996
2 43183  97.6167  46.8065 0013739 229.8453 130.1570 15.04559347289944
LEMUR-2-KADI            
1 43184U 18014E   23143.73768748  .00007751  00000+0  56864-3 0  9998
2 43184  97.6076  46.2853 0012259 214.2345 145.8092 15.03708043289925
LEMUR-2-THENICKMOLO     
1 43185U 18014F   23144.31390642  .00007851  00000+0  57337-3 0  9995
2 43185  97.6109  47.2535 0007827 208.6004 151.4793 15.03910851290021
LEMUR-2-ZUPANSKI        
1 43695U 18088F   23143.85836329  .00065748  00000+0  10428-2 0  9995
2 43695  85.0182  83.0965 0003264 348.6655  11.4529 15.53129887252141
LEMUR-2-CHANUSIAK       
1 43697U 18088H   23143.87744854  .00107378  00000+0  12356-2 0  9998
2 43697  85.0201  82.4142 0005639  27.8616 332.2949 15.61620719252381
LEMUR-2-CHRISTINAHOLT   
1 43882U 18111G   23143.72853405  .00007477  00000+0  53182-3 0  9990
2 43882  97.6561  51.9345 0008616 211.8884 148.1822 15.04915409240821
LEMUR-2-TINYKEV         
1 43883U 18111H   23143.74509334  .00009384  00000+0  64807-3 0  9997
2 43883  97.6368  51.8923 0008980 206.7976 153.2788 15.05943332240855
LEMUR-2-REMY-COLTON     
1 43884U 18111J   23143.99159143  .00008386  00000+0  58465-3 0  9998
2 43884  97.6471  52.9097 0002185 133.6485 226.4923 15.05656073238910
LEMUR-2-GUSTAVO         
1 43885U 18111K   23143.71334554  .00008766  00000+0  61737-3 0  9998
2 43885  97.6452  52.1033 0015034 218.4245 141.5912 15.05176952240837
LEMUR-2-ZO              
1 43886U 18111L   23143.56609273  .00010219  00000+0  72018-3 0  9995
2 43886  97.6351  52.0259 0012847 238.9906 121.0059 15.05129497240821
LEMUR-2-NATALIEMURRAY   
1 43887U 18111M   23143.68438724  .00009837  00000+0  68831-3 0  9992
2 43887  97.6485  52.8030 0011321 180.0710 180.0516 15.05423510240861
LEMUR-2-SARAHBETTYBOO   
1 43888U 18111N   23144.53601540  .00008189  00000+0  56819-3 0  9998
2 43888  97.6806  54.8118 0010551 270.9114  89.0903 15.05801801241007
LEMUR-2-DAISY-HARPER    
1 43889U 18111P   23143.73501020  .00007796  00000+0  54250-3 0  9992
2 43889  97.6726  54.0061 0008915 272.6512  87.3695 15.05725506240881
LEMUR-2-BEAUDACIOUS     
1 44085U 19018H   23144.18149759  .00243344  00000+0  14983-2 0  9994
2 44085  97.2510 210.7797 0005239 250.9016 109.1683 15.76492665231298
LEMUR-2-LILLYJO         
1 44396U 19038L   23143.88949012  .00031315  00000+0  92918-3 0  9995
2 44396  97.6484 124.9752 0016559  28.8314 331.3840 15.34620789214956
LEMUR-2-WANLI           
1 44402U 19038S   23143.85525891  .00034308  00000+0  94819-3 0  9992
2 44402  97.6451 124.6979 0016284  35.8897 324.3437 15.36832231214936
LEMUR-2-MORAG           
1 44403U 19038T   23144.40518593  .00030031  00000+0  96843-3 0  9994
2 44403  97.6558 125.8061 0016887  29.2759 330.9424 15.31975973215007
LEMUR-2-DUSTINTHEWIND   
1 44405U 19038V   23144.18212146  .00033501  00000+0  10164-2 0  9992
2 44405  97.6525 124.5560 0018331  27.3403 332.8799 15.33871895214953
LEMUR-2-ALEX-MADDY      
1 44407U 19038X   23143.92785008  .00020121  00000+0  72446-3 0  9993
2 44407  97.6632 123.1358 0018659  36.3813 323.8690 15.28454202214753
LEMUR-2-EJATTA          
1 44409U 19038Z   23143.92025946  .00030552  00000+0  90290-3 0  9999
2 44409  97.6496 125.3254 0016585  27.0142 333.1960 15.34752718214990
LEMUR-2-GREGROBINSON    
1 44411U 19038AB  23143.92007215  .00029611  00000+0  82530-3 0  9993
2 44411  97.6499 125.8798 0019840  46.1233 314.1645 15.36534681214633
LEMUR-2-YNDRD           
1 44413U 19038AD  23143.38682547  .00023628  00000+0  80148-3 0  9997
2 44413  97.6585 122.5216 0018111  36.8914 323.3568 15.30373827214691
LEMUR-2-JPGSQUARED      
1 44855U 19089D   23143.35118412  .00021300  00000+0  11987-2 0  9994
2 44855  36.9625 227.8625 0007833 134.0739 226.0653 15.12501283189289
LEMUR-2-HIMOMANDDAD     
1 44860U 19089J   23143.35229108  .00020878  00000+0  11754-2 0  9996
2 44860  36.9637 229.7078 0008072 129.6334 230.5125 15.12491658189141
LEMUR-2-PAPPY           
1 44861U 19089K   23143.30323374  .00015788  00000+0  93098-3 0  9998
2 44861  36.9624 231.1453 0007439 126.5411 233.6020 15.10905475189187
LEMUR-2-THEODOSIA       
1 44863U 19089M   23144.50248416  .00016963  00000+0  94624-3 0  9998
2 44863  36.9610 221.2512 0008386 144.6440 215.4863 15.12873905189306
LEMUR-2-ETHANOAKES      
1 46298U 20061AC  23144.18664995  .00061831  00000+0  16713-2 0  9998
2 46298  97.4072 217.5412 0002438 143.5795 216.5615 15.37507250150392
LEMUR-2-OSCARLATOR      
1 46299U 20061AD  23143.77313691  .00061041  00000+0  14366-2 0  9992
2 46299  97.4085 217.8540 0002372 166.0511 194.0802 15.41747625150402
LEMUR-2-SCHMIDTFALL     
1 46315U 20061AV  23144.43688521  .00082525  00000+0  18723-2 0  9993
2 46315  97.4098 219.3295 0002055 137.4160 222.7247 15.42755824150592
LEMUR-2-DJUPROERA       
1 46316U 20061AW  23144.15661130  .00101061  00000+0  19701-2 0  9994
2 46316  97.4087 219.7721 0002046 165.5454 194.5855 15.47155782150602
LEMUR-2-SQUAREJAWS      
1 46317U 20061AX  23144.18537892  .00090382  00000+0  19100-2 0  9991
2 46317  97.4094 219.4571 0001869 152.3543 207.7805 15.44835427150594
LEMUR-2-URSA-AVION      
1 46318U 20061AY  23144.16690621  .00086586  00000+0  18750-2 0  9991
2 46318  97.4094 219.3159 0001815 147.0387 213.0975 15.44128467150580
LEMUR-2-SLICERS         
1 46500U 20068Q   23143.80204320  .00017692  00000+0  92312-3 0  9997
2 46500  97.7559  92.3598 0009227 198.4722 161.6176 15.15969617145444
LEMUR-2-DAYWZAGOODDAY   
1 46501U 20068R   23143.83148737  .00015799  00000+0  82998-3 0  9995
2 46501  97.7580  92.7166 0008953 198.5506 161.5400 15.15756504145459
LEMUR-2-SUSURRUS        
1 46502U 20068S   23143.80279409  .00015132  00000+0  79098-3 0  9992
2 46502  97.7568  92.3627 0008948 198.7399 161.3505 15.15943946145441
